$$SOE
2460714.500000000, A.D. 2025-Feb-08 00:00:00.0000, 3.797415974324664E+08, -1.391554453392320E+08, 1.633405028978556E+06,
2460721.500000000, A.D. 2025-Feb-15 00:00:00.0000, 3.836640378070619E+08, -1.285734449369742E+08, 1.882009742794424E+06,
2460728.500000000, A.D. 2025-Feb-22 00:00:00.0000, 3.873053717264678E+08, -1.178972810637616E+08, 2.129235177197285E+06,
2460735.500000000, A.D. 2025-Mar-01 00:00:00.0000, 3.906633921204205E+08, -1.071349147328473E+08, 2.374902539278634E+06,
2460742.500000000, A.D. 2025-Mar-08 00:00:00.0000, 3.937361455200107E+08, -9.629435485480931E+07, 2.618834834498055E+06,
2460749.500000000, A.D. 2025-Mar-15 00:00:00.0000, 3.965219326194715E+08, -8.538364700292747E+07, 2.860857210072722E+06,
2460756.500000000, A.D. 2025-Mar-22 00:00:00.0000, 3.990193062107692E+08, -7.441086363047822E+07, 3.100797381504484E+06,
2460763.500000000, A.D. 2025-Mar-29 00:00:00.0000, 4.012270700721755E+08, -6.338409660535625E+07, 3.338485744395979E+06,
2460770.500000000, A.D. 2025-Apr-05 00:00:00.0000, 4.031442791414570E+08, -5.231144894409487E+07, 3.573755397414489E+06,
2460777.500000000, A.D. 2025-Apr-12 00:00:00.0000, 4.047702390568606E+08, -4.120102566148447E+07, 3.806442261028182E+06,
2460784.500000000, A.D. 2025-Apr-19 00:00:00.0000, 4.061045048892635E+08, -3.006092463723659E+07, 4.036385236660897E+06,
2460791.500000000, A.D. 2025-Apr-26 00:00:00.0000, 4.071468793484463E+08, -1.889922772191007E+07, 4.263426364266131E+06,
2460798.500000000, A.D. 2025-May-03 00:00:00.0000, 4.078974105893928E+08, -7.723992080977161E+06, 4.487410969034187E+06,
2460805.500000000, A.D. 2025-May-10 00:00:00.0000, 4.083563896605446E+08, 3.456758214678666E+06, 4.708187794982462E+06,
2460812.500000000, A.D. 2025-May-17 00:00:00.0000, 4.085243476452532E+08, 1.463504029477785E+07, 4.925609118459561E+06,
2460819.500000000, A.D. 2025-May-24 00:00:00.0000, 4.084020526855322E+08, 2.580292022220966E+07, 5.139530820914315E+06,
2460826.500000000, A.D. 2025-May-31 00:00:00.0000, 4.079905073200339E+08, 3.695252064847074E+07, 5.349812407649174E+06,
2460833.500000000, A.D. 2025-Jun-07 00:00:00.0000, 4.072909457489565E+08, 4.807602958544407E+07, 5.556317107616339E+06,
2460840.500000000, A.D. 2025-Jun-14 00:00:00.0000, 4.063048286802069E+08, 5.916570961793464E+07, 5.758912217097331E+06,
2460847.500000000, A.D. 2025-Jun-21 00:00:00.0000, 4.050338369949580E+08, 7.021390427434070E+07, 5.957469308566805E+06,
2460854.500000000, A.D. 2025-Jun-28 00:00:00.0000, 4.034798673772716E+08, 8.121304330927861E+07, 6.151864161792941E+06,
2460861.500000000, A.D. 2025-Jul-05 00:00:00.0000, 4.016450284073496E+08, 9.215564904714580E+07, 6.341976732572686E+06,
2460868.500000000, A.D. 2025-Jul-12 00:00:00.0000, 3.995316359458911E+08, 1.030343429745879E+08, 6.527691202769227E+06,
2460875.500000000, A.D. 2025-Jul-19 00:00:00.0000, 3.971422080171832E+08, 1.138418519999731E+08, 6.708896047382928E+06,
2460882.500000000, A.D. 2025-Jul-26 00:00:00.0000, 3.944794594170588E+08, 1.245710143172051E+08, 6.885484094730720E+06,
2460889.500000000, A.D. 2025-Aug-02 00:00:00.0000, 3.915462961256353E+08, 1.352147848915221E+08, 7.057352575419784E+06,
2460896.500000000, A.D. 2025-Aug-09 00:00:00.0000, 3.883458095627286E+08, 1.457662405518748E+08, 7.224403156888455E+06,
2460903.500000000, A.D. 2025-Aug-16 00:00:00.0000, 3.848812707795477E+08, 1.562185846287801E+08, 7.386541951778531E+06,
2460910.500000000, A.D. 2025-Aug-23 00:00:00.0000, 3.811561248988301E+08, 1.665651511568848E+08, 7.543679475376673E+06,
2460917.500000000, A.D. 2025-Aug-30 00:00:00.0000, 3.771739861516586E+08, 1.767994093571748E+08, 7.695730580865540E+06,
2460924.500000000, A.D. 2025-Sep-06 00:00:00.0000, 3.729386321084293E+08, 1.869149694003698E+08, 7.842614584740393E+06,
2460931.500000000, A.D. 2025-Sep-13 00:00:00.0000, 3.684539954506239E+08, 1.969055869736334E+08, 7.984255533708259E+06,
2460938.500000000, A.D. 2025-Sep-20 00:00:00.0000, 3.637241565761301E+08, 2.067651650092774E+08, 8.120582178980738E+06,
2460945.500000000, A.D. 2025-Sep-27 00:00:00.0000, 3.587533381102550E+08, 2.164877556885578E+08, 8.251527815160587E+06,
2460952.500000000, A.D. 2025-Oct-04 00:00:00.0000, 3.535458993173590E+08, 2.260675632642897E+08, 8.377030213055566E+06,
2460959.500000000, A.D. 2025-Oct-11 00:00:00.0000, 3.481063300522757E+08, 2.354989467652817E+08, 8.497031604035676E+06,
2460966.500000000, A.D. 2025-Oct-18 00:00:00.0000, 3.424392445478449E+08, 2.447764223143367E+08, 8.611478667797849E+06,
2460973.500000000, A.D. 2025-Oct-25 00:00:00.0000, 3.365493751897458E+08, 2.538946650771752E+08, 8.720322511838883E+06,
2460980.500000000, A.D. 2025-Nov-01 00:00:00.0000, 3.304415663285280E+08, 2.628485108645887E+08, 8.823518640397400E+06,
2460987.500000000, A.D. 2025-Nov-08 00:00:00.0000, 3.241207681727716E+08, 2.716329573640920E+08, 8.921026907193542E+06,
2460994.500000000, A.D. 2025-Nov-15 00:00:00.0000, 3.175920309201041E+08, 2.802431649514604E+08, 9.012811433680028E+06,
2461001.500000000, A.D. 2025-Nov-22 00:00:00.0000, 3.108604995380338E+08, 2.886744573121164E+08, 9.098840473884389E+06,
2461008.500000000, A.D. 2025-Nov-29 00:00:00.0000, 3.039314090502437E+08, 2.969223230160635E+08, 9.179086332488388E+06,
2461015.500000000, A.D. 2025-Dec-06 00:00:00.0000, 2.968100780563829E+08, 3.049824179187620E+08, 9.253525533941418E+06,
2461022.500000000, A.D. 2025-Dec-13 00:00:00.0000, 2.895019009261895E+08, 3.128505650307465E+08, 9.322138928035125E+06,
2461029.500000000, A.D. 2025-Dec-20 00:00:00.0000, 2.820123421723657E+08, 3.205227528907743E+08, 9.384911495376691E+06,
2461036.500000000, A.D. 2025-Dec-27 00:00:00.0000, 2.743469319354123E+08, 3.279951350412083E+08, 9.441832162923515E+06,
2461043.500000000, A.D. 2026-Jan-03 00:00:00.0000, 2.665112611255131E+08, 3.352640299986752E+08, 9.492893713322505E+06,
2461050.500000000, A.D. 2026-Jan-10 00:00:00.0000, 2.585109763356498E+08, 3.423259210508769E+08, 9.538092722831875E+06,
2461057.500000000, A.D. 2026-Jan-17 00:00:00.0000, 2.503517747625742E+08, 3.491774557978755E+08, 9.577429499316528E+06,
2461064.500000000, A.D. 2026-Jan-24 00:00:00.0000, 2.420393992169552E+08, 3.558154454703649E+08, 9.610908015328556E+06,
2461071.500000000, A.D. 2026-Jan-31 00:00:00.0000, 2.335796332488608E+08, 3.622368640273666E+08, 9.638535833826631E+06,
2461078.500000000, A.D. 2026-Feb-07 00:00:00.0000, 2.249782964522074E+08, 3.684388469859189E+08, 9.660324016540080E+06,
2461085.500000000, A.D. 2026-Feb-14 00:00:00.0000, 2.162412402029630E+08, 3.744186899776883E+08, 9.676286990864575E+06,
2461092.500000000, A.D. 2026-Feb-21 00:00:00.0000, 2.073743442207336E+08, 3.801738476199868E+08, 9.686442387192041E+06,
2461099.500000000, A.D. 2026-Feb-28 00:00:00.0000, 1.983835128709860E+08, 3.857019338629634E+08, 9.690811040505439E+06,
2461106.500000000, A.D. 2026-Mar-07 00:00:00.0000, 1.892746691479137E+08, 3.910007218690352E+08, 9.689417185934067E+06,
2461113.500000000, A.D. 2026-Mar-14 00:00:00.0000, 1.800537491121284E+08, 3.960681411028055E+08, 9.682288403717816E+06,
2461120.500000000, A.D. 2026-Mar-21 00:00:00.0000, 1.707266985689784E+08, 4.009022745404024E+08, 9.669455387069404E+06,
2461127.500000000, A.D. 2026-Mar-28 00:00:00.0000, 1.612994699792794E+08, 4.055013570328087E+08, 9.650951801271439E+06,
2461134.500000000, A.D. 2026-Apr-04 00:00:00.0000, 1.517780189978675E+08, 4.098637738626927E+08, 9.626814210612744E+06,
2461141.500000000, A.D. 2026-Apr-11 00:00:00.0000, 1.421683009125017E+08, 4.139880591396725E+08, 9.597082018790185E+06,
2461148.500000000, A.D. 2026-Apr-18 00:00:00.0000, 1.324762671398961E+08, 4.178728940317688E+08, 9.561797407822549E+06,
2461155.500000000, A.D. 2026-Apr-25 00:00:00.0000, 1.227078618210781E+08, 4.215171048530204E+08, 9.521005272835135E+06,
2461162.500000000, A.D. 2026-May-02 00:00:00.0000, 1.128690185431109E+08, 4.249196609847237E+08, 9.474753147989959E+06,
2461169.500000000, A.D. 2026-May-09 00:00:00.0000, 1.029656573092389E+08, 4.280796725725021E+08, 9.423091107255131E+06,
2461176.500000000, A.D. 2026-May-16 00:00:00.0000, 9.300368213411561E+07, 4.309963881461565E+08, 9.366071617047191E+06,
2461183.500000000, A.D. 2026-May-23 00:00:00.0000, 8.298897931569634E+07, 4.336691931926314E+08, 9.303749419661313E+06,
2461190.500000000, A.D. 2026-May-30 00:00:00.0000, 7.292741430570598E+07, 4.360976100063272E+08, 9.236181664016396E+06,
2461197.500000000, A.D. 2026-Jun-06 00:00:00.0000, 6.282482685831841E+07, 4.382812955439615E+08, 9.163428045247942E+06,
2461204.500000000, A.D. 2026-Jun-13 00:00:00.0000, 5.268702811785956E+07, 4.402200374882337E+08, 9.085550633324146E+06,
2461211.500000000, A.D. 2026-Jun-20 00:00:00.0000, 4.251979914271952E+07, 4.419137514530128E+08, 9.002613675450414E+06,
2461218.500000000, A.D. 2026-Jun-27 00:00:00.0000, 3.232888916488187E+07, 4.433624789929155E+08, 8.914683499888986E+06,
2461225.500000000, A.D. 2026-Jul-04 00:00:00.0000, 2.212001358124410E+07, 4.445663856449447E+08, 8.821828457662016E+06,
2461232.500000000, A.D. 2026-Jul-11 00:00:00.0000, 1.189885192695317E+07, 4.455257588735956E+08, 8.724118867864072E+06,
2461239.500000000, A.D. 2026-Jul-18 00:00:00.0000, 1.671045919991736E+06, 4.462410059485061E+08, 8.621626959962755E+06,
2461246.500000000, A.D. 2026-Jul-25 00:00:00.0000, -8.557802401940068E+06, 4.467126517604791E+08, 8.514426810870975E+06,
2461253.500000000, A.D. 2026-Aug-01 00:00:00.0000, -1.878213240755827E+07, 4.469413365305650E+08, 8.402594268282175E+06,
2461260.500000000, A.D. 2026-Aug-08 00:00:00.0000, -2.899642624980831E+07, 4.469278133789217E+08, 8.286206837520748E+06,
2461267.500000000, A.D. 2026-Aug-15 00:00:00.0000, -3.919520948413607E+07, 4.466729462066789E+08, 8.165343530588984E+06,
2461274.500000000, A.D. 2026-Aug-22 00:00:00.0000, -4.937305169168720E+07, 4.461777091158541E+08, 8.040084846907616E+06,
2461281.500000000, A.D. 2026-Aug-29 00:00:00.0000, -5.952456939826415E+07, 4.454431859966428E+08, 7.910512983329624E+06,
2461288.500000000, A.D. 2026-Sep-05 00:00:00.0000, -6.964442915882151E+07, 4.444705674123991E+08, 7.776711843493223E+06,
$$EOE